NUSAT-48 (HENRIETTA LE*)
1 60498U 24149AG  26068.80506098  .00012988  00000+0  45212-3 0  9999
2 60498  97.3923 150.8264 0002754 263.3026  96.7901 15.29812597 86946
STARLINK-35124          
1 65511U 25198V   26068.81983032  .00004006  00000+0  14744-3 0  9991
2 65511  53.1587 270.1344 0001321  60.2802 299.8330 15.30170001 28636
